GLOBALSTAR M084         
1 38040U 11080A   25328.36391757 -.00000076  00000+0  15279-3 0  9996
2 38040  52.0019 280.8386 0000872  44.3043 126.1258 12.62265600642898
GLOBALSTAR M080         
1 38041U 11080B   25328.65229521 -.00000076  00000+0  15263-3 0  9991
2 38041  52.0069 281.6079 0000598 103.1913  68.1583 12.62271375643058
GLOBALSTAR M082         
1 38042U 11080C   25328.50918941 -.00000068  00000+0  20204-3 0  9999
2 38042  52.0073 237.5228 0000747  89.2042  81.3378 12.62265296643743
GLOBALSTAR M092         
1 38043U 11080D   25328.39865044 -.00000099  00000+0  28833-4 0  9993
2 38043  52.0107 328.2451 0000365  67.6076  79.8349 12.62267782642180
GLOBALSTAR M090         
1 38044U 11080E   25328.45692936 -.00000073  00000+0  17151-3 0  9991
2 38044  52.0120 231.5724 0000721  67.2004 104.7366 12.62264494643857
GLOBALSTAR M086         
1 38045U 11080F   25328.68413855 -.00000057  00000+0  26281-3 0  9994
2 38045  51.9892 231.1433 0001006 359.0050  14.4458 12.62280221643838
GLOBALSTAR M097         
1 39072U 13005A   25328.78828606 -.00000109  00000+0 -26598-4 0  9990
2 39072  52.0017 145.5440 0000835  95.2220 264.8742 12.62267661591093
GLOBALSTAR M093         
1 39073U 13005B   25328.76223948 -.00000114  00000+0 -58386-4 0  9993
2 39073  52.0076 138.8929 0000678 106.6014 253.4927 12.62270701591042
